ONEWEB-0207             
1 48242U 21031AJ  24130.38858039  .00000225  00000+0  57187-3 0  9990
2 48242  87.8945  82.6563 0002048  75.0906 285.0451 13.14503463147292
ONEWEB-0208             
1 48243U 21031AK  24130.37033693 -.00000079  00000+0 -24802-3 0  9998
2 48243  87.8946  82.6750 0002255  83.3857 276.7529 13.14504352147302
ONEWEB-0200             
1 48244U 21031AL  24130.56221633  .00000104  00000+0  24722-3 0  9991
2 48244  87.8945  82.6346 0002270  84.1526 275.9863 13.14503929147257
ONEWEB-0217             
1 48245U 21031AM  24130.42585046 -.00000094  00000+0 -28770-3 0  9995
2 48245  87.8945  82.6459 0002359  86.6431 273.4968 13.14503778147186
ONEWEB-0211             
1 48767U 21045A   24130.53571769  .00000165  00000+0  40380-3 0  9996
2 48767  87.9050  52.1381 0001797  86.1607 273.9728 13.15550037143359
ONEWEB-0223             
1 48768U 21045B   24130.48183815  .00000076  00000+0  16752-3 0  9999
2 48768  87.9058  52.1546 0002041 101.5606 258.5754 13.15549959143332
ONEWEB-0237             
1 48770U 21045D   24130.51827672  .00000022  00000+0  24494-4 0  9996
2 48770  87.9060  52.1476 0001909  93.5123 266.6225 13.15550774143325
